OUFTI-1                 
1 41458U 16025C   21252.33735863  .00006098  00000-0  29008-3 0  9991
2 41458  98.1563  34.6520 0157742 136.3305 225.0530 15.09183034295123
E-ST@R-II               
1 41459U 16025D   21252.47053172  .00005797  00000-0  27943-3 0  9994
2 41459  98.1532  33.7600 0159547 139.1249 222.2074 15.08558223295084
AAUSAT 4                
1 41460U 16025E   21252.19064080  .00007280  00000-0  33171-3 0  9994
2 41460  98.1543  37.7750 0146151 122.5851 238.9587 15.11878296295363
AIST-2D (RS-48)         
1 41465U 16026B   21252.48209581  .00003080  00000-0  87930-4 0  9996
2 41465  97.0943 133.6808 0012775  73.0663  50.6244 15.36686141300331
SAMSAT-218D             
1 41466U 16026C   21252.54993262  .00030850  00000-0  39543-3 0  9991
2 41466  97.1490 161.2214 0004201  24.3056 104.1627 15.59106658301929
NUSAT-1 (FRESCO)        
1 41557U 16033B   21252.51612534  .00002721  00000-0  96653-4 0  9999
2 41557  97.3940 346.0081 0011202 300.3710 114.9978 15.29853185294380
NUSAT-2 (BATATA)        
1 41558U 16033C   21252.53283627  .00002899  00000-0  96418-4 0  9994
2 41558  97.4070 350.2405 0010259 292.5267 123.4058 15.31954640294591
CARTOSAT-2C             
1 41599U 16040A   21252.44989583  .00000860  00000-0  43877-4 0  9998
2 41599  97.3927 310.0623 0015573  84.3286 105.4083 15.19278917289262
SATHYABAMASAT           
1 41600U 16040B   21251.85611022  .00004207  00000-0  16247-3 0  9994
2 41600  97.2649 306.8168 0013881  48.6280 311.6150 15.26713680289871
LAPAN-A3                
1 41603U 16040E   21252.53123795  .00000308  00000-0  17264-4 0  9997
2 41603  97.2487 296.2383 0015067  69.8711  64.0616 15.20091733289358
BIROS                   
1 41604U 16040F   21251.92538006  .00001068  00000-0  48569-4 0  9991
2 41604  97.2550 301.5599 0013395  52.1414 308.1032 15.22740697289600
SWAYAM                  
1 41607U 16040J   21251.57362279  .00003780  00000-0  14795-3 0  9998
2 41607  97.2606 305.2378 0013679  50.2153 310.0288 15.26326515289726
BEESAT-4                
1 41619U 16040W   21251.62062378  .00003451  00000-0  13692-3 0  9994
2 41619  97.2618 305.3692 0011611  45.1265 315.0915 15.25957279277694
3CAT-2                  
1 41732U 16051B   21252.23288269  .00002432  00000-0  88240-4 0  9999
2 41732  97.3739 171.8006 0011471 203.9771 287.1683 15.29246571282305
PRATHAM                 
1 41783U 16059A   21251.55432641  .00000094  00000-0  27158-4 0  9995
2 41783  97.9570 298.7805 0033095 346.2628  13.7671 14.63163648264405
ALSAT 1N                
1 41789U 16059G   21252.54819173  .00000083  00000-0  24571-4 0  9994
2 41789  97.9609 303.6354 0027602 328.0917  31.8618 14.64451351264757
LISHUI 1-01             
1 41845U 16066E   21252.56553628  .00010348  00000-0  12818-2 0  9991
2 41845  98.7338   0.5616 0269390 220.6002 137.4845 14.60454177255677
CARTOSAT-2D             
1 41948U 17008A   21251.72795228  .00000905  00000-0  46099-4 0  9991
2 41948  97.4352 310.7881 0005937 220.9978 139.0809 15.19277705253023
NAYIF-1 (EO-88)         
1 42017U 17008BX  21252.16515203  .00003745  00000-0  13693-3 0  9999
2 42017  97.3090 318.2623 0006529 156.8410 203.3126 15.28667531254042
ZHUHAI-1 02 (CAS-4B)    
1 42759U 17034B   21252.54220994  .00000603  00000-0  49396-4 0  9993
2 42759  43.0175  78.7468 0009437 325.9324  67.8891 15.10349002233866
ZHUHAI-1 01 (CAS-4A)    
1 42761U 17034D   21252.53095563  .00000578  00000-0  47799-4 0  9993
2 42761  43.0178  77.8007 0009801 327.9689  80.3284 15.10436966233864
UCLSAT                  
1 42765U 17036A   21252.18058294  .00002844  00000-0  11585-3 0  9991
2 42765  97.2419 299.0730 0009225 235.9289 124.1074 15.25241185234343
NIUSAT                  
1 42766U 17036B   21252.15751430  .00001968  00000-0  86359-4 0  9999
2 42766  97.2431 295.2061 0013403 236.9310 123.0640 15.23027264233953
CARTOSAT-2E             
1 42767U 17036C   21252.41144853  .00000883  00000-0  45184-4 0  9990
2 42767  97.4974 310.8495 0006862 278.2170 138.5789 15.19247819233698
LITUANICASAT-2          
1 42768U 17036D   21251.91300271  .00005114  00000-0  19546-3 0  9997
2 42768  97.2496 299.8954 0012221 224.0600 135.9667 15.26973169234201
AALTO-1                 
1 42775U 17036L   21252.06896224  .00001639  00000-0  72656-4 0  9990
2 42775  97.2398 295.3256 0011959 235.9684 124.0418 15.22921108233929
URSA MAIOR              
1 42776U 17036M   21252.05627930  .00001831  00000-0  80151-4 0  9999
2 42776  97.2413 295.8288 0011742 235.1798 124.8335 15.23210514233947
COMPASS 2               
1 42777U 17036N   21252.38251516  .00003834  00000-0  15066-3 0  9996
2 42777  97.2480 300.4094 0010311 223.3896 136.6532 15.26221882234213
MAX VALIER SAT          
1 42778U 17036P   21252.36088951  .00001927  00000-0  82566-4 0  9997
2 42778  97.2479 298.2011 0010285 234.9756 125.0517 15.23898773234062
PEGASUS                 
1 42784U 17036V   21252.11900751  .00002643  00000-0  10931-3 0  9990
2 42784  97.2427 298.4917 0009805 238.9661 121.0615 15.24786658234103
NUDTSAT                 
1 42787U 17036Y   21251.94853296  .00003957  00000-0  15225-3 0  9994
2 42787  97.2477 301.0209 0008716 232.7745 127.2681 15.26919936234077
SUCHAI                  
1 42788U 17036Z   21251.81036960  .00003166  00000-0  12707-3 0  9996
2 42788  97.2438 299.2953 0009309 235.9254 124.1101 15.25648950234198
SKCUBE                  
1 42789U 17036AA  21251.85480961  .00002998  00000-0  12155-3 0  9994
2 42789  97.2431 299.0088 0009222 236.7328 123.3027 15.25352266234105
VZLUSAT-1               
1 42790U 17036AB  21251.81307636  .00004312  00000-0  16584-3 0  9991
2 42790  97.2462 300.8779 0008696 229.9441 130.1036 15.26884159234202
ROBUSTA-1B              
1 42792U 17036AD  21251.94133660  .00003159  00000-0  12697-3 0  9990
2 42792  97.2434 299.5060 0008812 235.9206 124.1196 15.25613878234157
D-SAT                   
1 42794U 17036AF  21252.01083948  .00000472  00000-0  45972-4 0  9992
2 42794  97.4600 267.4572 0124028 307.1460  51.8481 14.91671308229544
NORSAT 2                
1 42828U 17042D   21252.40655339  .00000371  00000-0  41778-4 0  9997
2 42828  97.4657 119.0213 0013071 220.2063 139.8191 14.91940505226233
TECHNOSAT               
1 42829U 17042E   21252.39229491  .00000264  00000-0  31690-4 0  9995
2 42829  97.4569 117.4201 0012987 222.5790 137.4423 14.91336232226195
2017-042F               
1 42830U 17042F   21252.11897888  .00001386  00000-0  13818-3 0  9995
2 42830  97.4698 120.1240 0012802 214.9034 145.1348 14.93046395226288
FLYING LAPTOP           
1 42831U 17042G   21252.56630797 -.00000082  00000-0 -29629-5 0  9992
2 42831  97.4577 117.8318 0012804 222.8977 137.1269 14.91339280226223
CORVUS BC2              
1 42846U 17042X   21251.57596195  .00000462  00000-0  50314-4 0  9995
2 42846  97.4603 119.2929 0008526 213.0206 147.0482 14.92350810226237
CORVUS BC1              
1 42847U 17042Y   21252.07756318  .00000085  00000-0  13422-4 0  9997
2 42847  97.4606 120.0223 0008241 209.6933 150.3820 14.92449184226315
SIMPL                   
1 42983U 98067NF  21252.47648356  .00014196  00000-0  12778-3 0  9990
2 42983  51.6357 191.9611 0002038 323.6050  36.4808 15.68503607220582
CZ-4C R/B               
1 43012U 17072C   21252.52618849  .00000092  00000-0  30006-4 0  9996
2 43012  98.7280 271.0978 0128623  96.0565 265.5305 14.56194657202977
RADFXSAT (FOX-1B)       
1 43017U 17073E   21252.19054027  .00001786  00000-0  14125-3 0  9991
2 43017  97.6972 152.8251 0255278  27.4394 334.0035 14.79707339205509
EAGLESAT 1              
1 43018U 17073F   21252.16269838  .00002944  00000-0  22532-3 0  9995
2 43018  97.6982 153.8335 0251548  23.7534 337.5053 14.80864833205431
ECAMSAT                 
1 43019U 98067NG  21251.98190600  .00059187  00000-0  23569-3 0  9999
2 43019  51.6374 150.3082 0000402 205.8428 154.2556 15.86046606303410
INS-1C                  
1 43116U 18004F   21252.15833053  .00002715  00000-0  10994-3 0  9999
2 43116  97.4085 325.8469 0007245 265.5080  94.5330 15.25528850203405
FLOCK 3P'-3             
1 43119U 18004J   21251.58284620  .00001693  00000-0  71683-4 0  9995
2 43119  97.4074 324.0392 0008113 278.7495  81.2824 15.24524186203243
FLOCK 3P'-2             
1 43120U 18004K   21251.97145885  .00001652  00000-0  70794-4 0  9996
2 43120  97.4081 324.1866 0008138 278.0694  81.9620 15.24158156203286
FLOCK 3P'-1             
1 43121U 18004L   21251.87605460  .00007052  00000-0  26131-3 0  9991
2 43121  97.4075 326.3973 0007189 268.2768  91.7648 15.27926782203359
FLOCK 3P'-4             
1 43122U 18004M   21252.16233999  .00001513  00000-0  65061-4 0  9991
2 43122  97.4091 324.4946 0007946 279.7827  80.2513 15.24178858203311
MICROMAS-2A             
1 43131U 18004W   21251.83142719  .00004945  00000-0  18377-3 0  9992
2 43131  97.4066 327.2369 0006604 266.4814  93.5670 15.27988813203495
PICSAT                  
1 43132U 18004X   21251.85814897  .00002856  00000-0  11311-3 0  9998
2 43132  97.4043 325.6503 0007224 274.7098  85.3315 15.26224033203400
CNUSAIL-1               
1 43133U 18004Y   21251.68023088  .00002195  00000-0  90429-4 0  9998
2 43133  97.4009 324.3231 0007440 278.8668  81.1727 15.25149271203315
2018-004Z               
1 43134U 18004Z   21251.66728655  .00002773  00000-0  11121-3 0  9992
2 43134  97.4029 325.0856 0007205 277.3261  82.7158 15.25832295203355
FOX-1D (AO-92)          
1 43137U 18004AC  21251.83899011  .00002482  00000-0  10057-3 0  9993
2 43137  97.4012 325.0112 0007022 278.4923  81.5519 15.25577463203372
STEP CUBE LAB           
1 43138U 18004AD  21251.91471944  .00004427  00000-0  16727-3 0  9995
2 43138  97.4063 327.1042 0006586 272.0517  87.9968 15.27496325203497
XIAOXIANG-2             
1 43155U 18008A   21252.47148214  .00001243  00000-0  74429-4 0  9998
2 43155  97.3957 314.8944 0018351  42.3152  14.7375 15.12667555200774
